#aV2014  6 23  0  0  0.00000000     288 DD+AD WGS84 FIT  NGA
## 1798  86400.00000000   300.00000000 56831 0.0000000000000
+   32     1  2  3  4  5  6  7  8  9 10 11 12 13 14 15 16 17
+         18 19 20 21 22 23 24 25 26 27 28 29 30 31 32  0  0
+          0  0  0  0  0  0  0  0  0  0  0  0  0  0  0  0  0
+          0  0  0  0  0  0  0  0  0  0  0  0  0  0  0  0  0
+          0  0  0  0  0  0  0  0  0  0  0  0  0  0  0  0  0
++         2  2  2  2  2  2  2  2  2  2  2  2  2  2  2  2  2
++         2  2  2  2  2  2  2  2  2  2  2  2  2  2  2  0  0
++         0  0  0  0  0  0  0  0  0  0  0  0  0  0  0  0  0
++         0  0  0  0  0  0  0  0  0  0  0  0  0  0  0  0  0
++         0  0  0  0  0  0  0  0  0  0  0  0  0  0  0  0  0
%c cc cc ccc ccc cccc cccc cccc cccc ccccc ccccc ccccc ccccc
%c cc cc ccc ccc cccc cccc cccc cccc ccccc ccccc ccccc ccccc
%f  0.0000000  0.000000000  0.00000000000  0.000000000000000
%f  0.0000000  0.000000000  0.00000000000  0.000000000000000
%i    0    0    0    0      0      0      0      0         0
%i    0    0    0    0      0      0      0      0         0
/*      NGA, ST. LOUIS,MO.                                  
/*   EPHEMERIS COMPUTED FROM  1 DAYS OF DATA                
/*   EPOCHA SMOOTHER                                       
/* CCCCCCCCCCCCCCCCCCCCCCCCCCCCCCCCCCCCCCCCCCCCCCCCCCCCCCCCC
*  2014  6 23 15 15  0.00000000
P  1 -15140.115221 -13238.688062 -17453.822000     16.014672                    
V  1  22102.205555   -124.866093 -18969.064774      0.009653                    
P  2 -10134.216331  14335.820458  20093.957946    502.764776                    
V  2 -25008.395446  -2374.248004 -11572.779502      0.021823                    
P  3   3629.522111 -24625.229715  -9611.835328    381.629775                    
V  3   7671.528592  -9136.568545  28074.457243      0.048689                    
P  4 -24344.857740   5428.413586   9139.071582      7.337093                    
V  4 -11827.664887  -3701.322693 -28104.756037      0.000537                    
P  5  -1225.597750  21725.753153  15079.797094   -363.564993                    
V  5 -10862.791424 -16156.886059  22505.783974      0.028982                    
P  6 -21372.472203   8181.317030  13460.097178      5.190192                    
V  6 -16954.057659  -3222.934887 -24956.068766     -0.026445                    
P  7 -25086.575432  -6622.231378   6549.278473    360.885570                    
V  7   8274.040343  -1323.376758  30362.884208      0.042640                    
P  8 -26547.583900  -4009.193950  -1476.872130     14.376174                    
V  8  -1782.845771  -1521.543445  32041.129176      0.002025                    
P  9 -25642.977707   3119.993629  -7161.874399     53.959518                    
V  9  -8183.272617  -2316.692529  30367.753284      0.674669                    
P 10 -13581.388170   7416.618664  21235.781135   -130.867723                    
V 10 -12366.139682 -24964.132739   1216.695533     -0.015166                    
P 11  -7808.288000 -15306.438963 -20770.006438   -499.648701                    
V 11  24590.032716  -7072.843350  -3925.369537     -0.030979                    
P 12  11027.996873  24294.952747    186.392827    213.456752                    
V 12  -1488.037354   1022.237685 -32190.289646      0.025129                    
P 13 -13449.356364  -6764.711771  21765.749161    -13.427409                    
V 13  17622.694924 -21605.404558   3983.458331     -0.038717                    
P 14  19997.358904 -10789.748346 -13400.664536    160.939457                    
V 14  -8982.006728  15092.958373 -25287.104842     -0.035061                    
P 15    492.511371  21339.954208 -15676.712698   -186.963723                    
V 15 -12628.318528  15716.137100  21362.522604     -0.021810                    
P 16   1930.401394 -21338.267771  15397.047228   -211.529145                    
V 16   9252.454320  17519.167069  23385.323717      0.021256                    
P 17 -19617.212112  11541.090950 -13238.941883   -103.533897                    
V 17   8349.771941 -15332.196934 -25466.424307     -0.028849                    
P 18  18529.468044  10933.524355 -15322.532002    327.267541                    
V 18   6873.077702  19234.492967  21069.532903      0.024106                    
P 19   4117.474424 -21476.248164 -14893.873970   -464.315110                    
V 19  13529.826331 -13274.360106  23553.231043     -0.021252                    
P 20 -14654.179239 -22072.120180   2159.091807    203.094126                    
V 20   1830.155792  -4491.108015 -30770.441326      0.040765                    
P 21  26353.059611   3991.955439   3467.182080   -368.662646                    
V 21  -3762.759645   3037.430757  30423.064471     -0.021777                    
P 22  15864.001520  -3525.078900 -20810.079993    244.470194                    
V 22  11761.670095  24372.136603   4623.016709      0.031452                    
P 23  -6384.508610 -16129.512791  20108.205181    -31.022161                    
V 23  15358.515957 -20319.603070 -11910.187964     -0.030136                    
P 24  10657.530060  14413.460086 -19652.198955    -30.644090                    
V 24 -24918.178171    -45.851314 -13468.580992     -0.005651                    
P 25  16995.252328  17175.178551  11103.640663     24.908321                    
V 25   4608.669199  13511.837416 -27630.921211      0.000630                    
P 26 -11118.798795  22670.277009  -8397.260121     37.284987                    
V 26  -7982.286613   6178.081483  29842.812602     -0.123438                    
P 27  11914.544857 -23332.552750  -4165.529106     -7.780447                    
V 27   5180.189424  -2915.554243  31282.681234      0.030642                    
P 28 -15739.814337  -2136.482606 -20712.492320    364.454602                    
V 28 -10070.094553 -25711.707357   9891.485833      0.027536                    
P 29  13417.868652   7034.709965  21847.297507    541.771908                    
V 29 -16250.706966  22348.743409   2835.804801      0.026720                    
P 30 -26282.106433   -947.660271  -3870.564909    -31.973876                    
V 30  -4462.053705  -3462.959165  31178.120787     -0.068106                    
P 31  20642.064467  -8204.895872  14939.438022    333.885802                    
V 31  18339.168316   3120.398949 -23567.266930     -0.002027                    
P 32  -3880.846255 -25322.559066  -7948.884193   -400.588954                    
V 32   6103.342826   8377.136374 -28931.503006      0.083015                    
EOF
